ONEWEB-0427             
1 50499U 21132AG  25360.58108387  .00000056  00000+0  11015-3 0  9993
2 50499  87.9173   9.7070 0001760  98.8224 261.3108 13.18685979198864
ONEWEB-0429             
1 50500U 21132AH  25360.56787763  .00000069  00000+0  14274-3 0  9999
2 50500  87.9173   9.7421 0001736  85.7527 274.3803 13.18686711198839
ONEWEB-0430             
1 50501U 21132AJ  25360.55632175 -.00000052  00000+0 -16492-3 0  9993
2 50501  87.9180   9.7401 0001526  84.5848 275.5458 13.18687042198877
ONEWEB-0432             
1 50502U 21132AK  25360.58834610  .00000007  00000+0 -15756-4 0  9997
2 50502  87.9170   9.7053 0001468 122.7705 237.3569 13.18677639198838
ONEWEB-0440             
1 50503U 21132AL  25360.42437790 -.00000005  00000+0 -44539-4 0  9999
2 50503  87.9177   9.7565 0002143  83.7058 276.4318 13.18686557198804
ONEWEB-0450             
1 50504U 21132AM  25360.56967699 -.00000004  00000+0 -42566-4 0  9998
2 50504  87.9168   9.7484 0001680  82.8971 277.2352 13.18684605198858
